GUOWANG OBJECT A        
1 69572U 26137A   26179.36768966 -.00000014  00000+0  10694-3 0  9992
2 69572  49.9990 210.8666 0012624 262.3584  97.5880 13.89813079  1574
GUOWANG OBJECT B        
1 69573U 26137B   26179.50854645  .00000033  00000+0  14458-3 0  9991
2 69573  49.9987 210.2780 0011850 262.1374  97.8179 13.89805142  1607
GUOWANG OBJECT C        
1 69574U 26137C   26179.50753612 -.00000026  00000+0  96698-4 0  9994
2 69574  49.9947 210.2617 0011902 263.5846  96.3697 13.89815582  1608
GUOWANG OBJECT D        
1 69575U 26137D   26179.57841049 -.00000111  00000+0  27847-4 0  9999
2 69575  49.9947 209.9688 0011117 262.5419  97.4216 13.89828483  1619
GUOWANG OBJECT E        
1 69576U 26137E   26179.57740731  .00000006  00000+0  12312-3 0  9998
2 69576  50.0005 209.9815 0011211 265.4025  94.5593 13.89826269  1616
GUOWANG OBJECT F        
1 69577U 26137F   26179.57645516 -.00000236  00000+0 -72780-4 0  9997
2 69577  49.9999 209.9747 0010831 265.1684  94.7978 13.89810442  1610
GUOWANG OBJECT G        
1 69578U 26137G   26178.28111271 -.00000007  00000+0  11082-3 0  9993
2 69578  49.9950 215.1041 0010928 261.8500  98.1159 13.90789809  1434
GUOWANG OBJECT H        
1 69579U 26137H   26176.48489301  .00000037  00000+0  14270-3 0  9990
2 69579  49.9967 222.2731 0010122 259.8752 100.1006 13.92076941  1185
GUOWANG OBJECT J        
1 69580U 26137J   26178.27848690  .00000022  00000+0  13174-3 0  9997
2 69580  49.9961 215.0979 0011832 257.3150 102.6427 13.91997107  1436
CENTISPACE-1 GROUP 05 O*
1 69582U 26138A   26179.44033323 -.00000389  00000+0 -12010-3 0  9995
2 69582  55.1411 239.6107 0010203 304.9516  55.0499 14.15475400  1612
CENTISPACE-1 GROUP 05 O*
1 69583U 26138B   26179.43887821 -.00000385  00000+0 -11782-3 0  9996
2 69583  55.1410 239.6009 0009164 304.7850  55.2261 14.15656488  1612
CENTISPACE-1 GROUP 05 O*
1 69584U 26138C   26179.65001154 -.00000279  00000+0 -63504-4 0  9990
2 69584  55.1413 238.8236 0009102 307.1753  52.8390 14.15740444  1645
CENTISPACE-1 GROUP 05 O*
1 69585U 26138D   26179.64870204 -.00000383  00000+0 -11585-3 0  9997
2 69585  55.1415 238.8068 0008664 305.8431  54.1738 14.15927755  1644
CENTISPACE-1 GROUP 05 O*
1 69586U 26138E   26179.57757627 -.00000344  00000+0 -95883-4 0  9994
2 69586  55.1412 239.0722 0008379 306.0354  53.9843 14.15994087  1637
CENTISPACE-1 GROUP 05 O*
1 69587U 26138F   26179.64861584 -.00000364  00000+0 -10636-3 0  9995
2 69587  55.1415 238.8150 0008237 310.8044  49.2215 14.15917268  1643
CENTISPACE-1 GROUP 05 O*
1 69588U 26138G   26179.50608488 -.00000334  00000+0 -90959-4 0  9997
2 69588  55.1415 239.3265 0007513 309.7789  50.2523 14.16081844  1621
SPACEMOBILE-008         
1 69589U 26139A   26179.57029980  .00000526  00000+0  46573-4 0  9994
2 69589  52.9934 210.8864 0004084  14.5064 345.6044 15.12781878  1708
SPACEMOBILE-009         
1 69590U 26139B   26179.57108901  .00000491  00000+0  44745-4 0  9997
2 69590  52.9926 210.8877 0004271   8.7059 351.4006 15.12675353  1705
SPACEMOBILE-010         
1 69591U 26139C   26179.57234500  .00000463  00000+0  43294-4 0  9990
2 69591  52.9932 210.8977 0004127 358.6572   1.4407 15.12506612  1710
KUIPER-00423            
1 69592U 26140A   26179.58334491 -.00024833  00000+0 -63767-3 0  9999
2 69592  51.8808 343.4929 0014056 204.6331 324.5050 15.38264311  1365
KUIPER-00428            
1 69593U 26140B   26179.63852753  .00129167  00000+0  34998-2 0  9999
2 69593  51.8814 343.4601 0007087 328.4481  31.6080 15.36669508  2991
KUIPER-00481            
1 69594U 26140C   26179.58334491 -.00010370  00000+0 -26604-3 0  9991
2 69594  51.8789 343.5425 0011477 213.3675 290.8348 15.37571221  2422
KUIPER-00490            
1 69595U 26140D   26179.63163006  .00018923  00000+0  51572-3 0  9992
2 69595  51.8783 343.4107 0005882 271.1281  88.9032 15.37487384  2995
KUIPER-00493            
1 69596U 26140E   26179.64089274  .00020437  00000+0  57817-3 0  9999
2 69596  51.8817 343.4760 0006721 342.3946  17.6807 15.36265950  2992
KUIPER-00496            
1 69597U 26140F   26179.64437210  .00022852  00000+0  66258-3 0  9999
2 69597  51.8807 343.4920 0008264 350.8678   9.2157 15.35413859  2997
KUIPER-00513            
1 69598U 26140G   26179.63051541 -.00003292  00000+0 -77020-4 0  9997
2 69598  51.8818 343.4083 0006518 269.9331  90.0910 15.37695074  2994
KUIPER-00516            
1 69599U 26140H   26179.63311265  .00013580  00000+0  37528-3 0  9997
2 69599  51.8795 343.4227 0007201 292.4154  67.6070 15.37319721  2992
KUIPER-00517            
1 69600U 26140J   26179.62308230  .00027776  00000+0  72146-3 0  9994
2 69600  51.8784 343.3573 0010661 227.1281 132.8812 15.38696025  2991
KUIPER-00520            
1 69601U 26140K   26179.63426511  .00032658  00000+0  88834-3 0  9995
2 69601  51.8827 343.4357 0005783 291.0634  68.9734 15.37224890  2990
