OBJECT_NAME,OBJECT_ID,EPOCH,MEAN_MOTION,ECCENTRICITY,INCLINATION,RA_OF_ASC_NODE,ARG_OF_PERICENTER,MEAN_ANOMALY,EPHEMERIS_TYPE,CLASSIFICATION_TYPE,NORAD_CAT_ID,ELEMENT_SET_NO,REV_AT_EPOCH,BSTAR,MEAN_MOTION_DOT,MEAN_MOTION_DDOT
GUOWANG OBJECT A,2026-137A,2026-06-28T08:49:28.386624,13.89813079,.00126247,49.9990,210.8666,262.3584,97.5880,0,U,69572,999,157,.10694272E-3,-.14E-6,0
GUOWANG OBJECT B,2026-137B,2026-06-28T12:12:18.413280,13.89805142,.00118502,49.9987,210.2780,262.1374,97.8179,0,U,69573,999,160,.14458019E-3,.33E-6,0
GUOWANG OBJECT C,2026-137C,2026-06-28T12:10:51.120768,13.89815582,.00119021,49.9947,210.2617,263.5846,96.3697,0,U,69574,999,160,.9669759E-4,-.26E-6,0
GUOWANG OBJECT D,2026-137D,2026-06-28T13:52:54.666336,13.89828483,.00111172,49.9947,209.9688,262.5419,97.4216,0,U,69575,999,161,.27846909E-4,-.111E-5,0
GUOWANG OBJECT E,2026-137E,2026-06-28T13:51:27.991584,13.89826269,.00112113,50.0005,209.9815,265.4025,94.5593,0,U,69576,999,161,.12311933E-3,.6E-7,0
GUOWANG OBJECT F,2026-137F,2026-06-28T13:50:05.725824,13.89810442,.00108319,49.9999,209.9747,265.1684,94.7978,0,U,69577,999,161,-.72779946E-4,-.236E-5,0
GUOWANG OBJECT G,2026-137G,2026-06-27T06:44:48.138144,13.90789809,.0010928,49.9950,215.1041,261.8500,98.1159,0,U,69578,999,143,.11082E-3,-.7E-7,0
GUOWANG OBJECT H,2026-137H,2026-06-25T11:38:14.756064,13.92076941,.0010122,49.9967,222.2731,259.8752,100.1006,0,U,69579,999,118,.1427E-3,.37E-6,0
GUOWANG OBJECT J,2026-137J,2026-06-27T06:41:01.268160,13.91997107,.0011832,49.9961,215.0979,257.3150,102.6427,0,U,69580,999,143,.13174E-3,.22E-6,0
CENTISPACE-1 GROUP 05 OBJECT A,2026-138A,2026-06-28T10:34:04.791072,14.15475400,.00102033,55.1411,239.6107,304.9516,55.0499,0,U,69582,999,161,-.12009889E-3,-.389E-5,0
CENTISPACE-1 GROUP 05 OBJECT B,2026-138B,2026-06-28T10:31:59.077344,14.15656488,.00091644,55.1410,239.6009,304.7850,55.2261,0,U,69583,999,161,-.11781726E-3,-.385E-5,0
CENTISPACE-1 GROUP 05 OBJECT C,2026-138C,2026-06-28T15:36:00.997056,14.15740444,.00091023,55.1413,238.8236,307.1753,52.8390,0,U,69584,999,164,-.63504451E-4,-.279E-5,0
CENTISPACE-1 GROUP 05 OBJECT D,2026-138D,2026-06-28T15:34:07.856256,14.15927755,.00086643,55.1415,238.8068,305.8431,54.1738,0,U,69585,999,164,-.11585084E-3,-.383E-5,0
CENTISPACE-1 GROUP 05 OBJECT E,2026-138E,2026-06-28T13:51:42.589728,14.15994087,.00083799,55.1412,239.0722,306.0354,53.9843,0,U,69586,999,163,-.95882728E-4,-.344E-5,0
CENTISPACE-1 GROUP 05 OBJECT F,2026-138F,2026-06-28T15:34:00.408576,14.15917268,.00082378,55.1415,238.8150,310.8044,49.2215,0,U,69587,999,164,-.10635613E-3,-.364E-5,0
CENTISPACE-1 GROUP 05 OBJECT G,2026-138G,2026-06-28T12:08:45.733632,14.16081844,.00075133,55.1415,239.3265,309.7789,50.2523,0,U,69588,999,162,-.90959453E-4,-.334E-5,0
SPACEMOBILE-008,2026-139A,2026-06-28T13:41:13.902720,15.12781878,.00040842,52.9934,210.8864,14.5064,345.6044,0,U,69589,999,170,.46572986E-4,.526E-5,0
SPACEMOBILE-009,2026-139B,2026-06-28T13:42:22.090464,15.12675353,.00042711,52.9926,210.8877,8.7059,351.4006,0,U,69590,999,170,.44745188E-4,.491E-5,0
SPACEMOBILE-010,2026-139C,2026-06-28T13:44:10.608000,15.12506612,.00041278,52.9932,210.8977,358.6572,1.4407,0,U,69591,999,171,.43293807E-4,.463E-5,0
KUIPER-00423,2026-140A,2026-06-28T14:00:01.000224,15.38264311,.00140564,51.8808,343.4929,204.6331,324.5050,0,U,69592,999,136,-.63766851E-3,-.24833E-3,0
KUIPER-00428,2026-140B,2026-06-28T15:19:28.778592,15.36669508,.00070877,51.8814,343.4601,328.4481,31.6080,0,U,69593,999,299,.3499758E-2,.129167E-2,0
KUIPER-00481,2026-140C,2026-06-28T14:00:01.000224,15.37571221,.00114778,51.8789,343.5425,213.3675,290.8348,0,U,69594,999,242,-.26603985E-3,-.1037E-3,0
KUIPER-00490,2026-140D,2026-06-28T15:09:32.837184,15.37487384,.00058826,51.8783,343.4107,271.1281,88.9032,0,U,69595,999,299,.51572232E-3,.18923E-3,0
KUIPER-00493,2026-140E,2026-06-28T15:22:53.132736,15.36265950,.00067216,51.8817,343.4760,342.3946,17.6807,0,U,69596,999,299,.57816776E-3,.20437E-3,0
KUIPER-00496,2026-140F,2026-06-28T15:27:53.749440,15.35413859,.00082644,51.8807,343.4920,350.8678,9.2157,0,U,69597,999,299,.66257562E-3,.22852E-3,0
KUIPER-00513,2026-140G,2026-06-28T15:07:56.531424,15.37695074,.00065182,51.8818,343.4083,269.9331,90.0910,0,U,69598,999,299,-.77019827E-4,-.3292E-4,0
KUIPER-00516,2026-140H,2026-06-28T15:11:40.932960,15.37319721,.0007201,51.8795,343.4227,292.4154,67.6070,0,U,69599,999,299,.37528118E-3,.1358E-3,0
KUIPER-00517,2026-140J,2026-06-28T14:57:14.310720,15.38696025,.00106614,51.8784,343.3573,227.1281,132.8812,0,U,69600,999,299,.7214617E-3,.27776E-3,0
KUIPER-00520,2026-140K,2026-06-28T15:13:20.505504,15.37224890,.00057839,51.8827,343.4357,291.0634,68.9734,0,U,69601,999,299,.88834117E-3,.32658E-3,0
